ASRTU-1
1 99130U 20499A   24338.20856482 -.00035758  00000-0 -14879-2 0 00005
2 99130 097.3771 202.5626 0018894 136.6187 171.5812 15.23680970000010

// ASRTU-1_20241203A
